SILU-1 (SILKROAD 1)     
1 42903U 17021F   18259.85502036  .00035323  00000-0  21932-3 0  9999
2 42903  42.7771 131.2299 0014738 235.5507 184.7696 15.76173374 64370
MIRATA                  
1 43015U 17073C   18259.53845583  .00001850  00000-0  15120-3 0  9993
2 43015  97.7043 186.7306 0257037 334.4483  24.4203 14.78349615 44639
MAKERSAT 0              
1 43016U 17073D   18259.32104394  .00001313  00000-0  10850-3 0  9998
2 43016  97.7079 186.6710 0258554 335.2151  23.6816 14.78294202 44590
ASTERIA                 
1 43020U 98067NH  18259.48096816  .00010630  00000-0  12873-3 0  9990
2 43020  51.6410 275.0960 0002425 132.8402 227.2796 15.61268360 46744
DELLINGR (RBLE)         
1 43021U 98067NJ  18259.65629942  .00006883  00000-0  94235-4 0  9990
2 43021  51.6390 276.9745 0002508 126.6336 233.4888 15.58669080 46732
OSIRIS-3U               
1 43027U 98067NL  18259.48582085  .00039918  00000-0  33144-3 0  9999
2 43027  51.6360 266.7796 0003411  92.7492 267.3895 15.69763966 46732
AEROCUBE 7B             
1 43042U 17071F   18259.54164391  .00002713  00000-0  78327-4 0  9991
2 43042  51.6393 316.2957 0004505 235.1767 124.8793 15.39384943 43673
AEROCUBE 7C             
1 43043U 17071G   18259.54163396  .00002655  00000-0  76863-4 0  9994
2 43043  51.6395 316.3022 0004609 236.8079 123.2463 15.39387935 43647
CHEFSAT                 
1 43044U 17071H   18259.42311357  .00005435  00000-0  14094-3 0  9990
2 43044  51.6400 315.5485 0004536 236.9374 123.1176 15.40637020 43642
ASGARDIA 1              
1 43049U 17071N   18259.57983675  .00002982  00000-0  84753-4 0  9993
2 43049  51.6399 315.8169 0002041 258.6401 101.4354 15.39506346 43648
ISARA                   
1 43050U 17071P   18259.56577837  .00005111  00000-0  13414-3 0  9995
2 43050  51.6391 314.9901 0001973 256.5703 103.5062 15.40401431 43663
FAUNA                   
1 43052U 17071R   18259.55961955  .00003381  00000-0  94247-4 0  9995
2 43052  51.6396 315.6930 0001958 253.6570 106.4199 15.39669680 43644
CORVUS BC3              
1 43118U 18004H   18259.17973269  .00000919  00000-0  42868-4 0  9990
2 43118  97.5246 321.9129 0011853 131.3847 228.8410 15.22389856 37558
MICROMAS-2A             
1 43131U 18004W   18259.43066368  .00002001  00000-0  87825-4 0  9993
2 43131  97.5254 322.3693 0011017 132.9715 227.2447 15.23103785 37601
GOMX4-B                 
1 43196U 18015E   18259.42851129  .00000682  00000-0  31191-4 0  9990
2 43196  97.3573  26.5498 0018393 193.0857 166.9900 15.23742727 34424
GOMX4-A                 
1 43197U 18015F   18259.77757006  .00000829  00000-0  37280-4 0  9996
2 43197  97.3597  26.8969 0018844 190.9553 303.7234 15.23753101 34482
1KUNS-PF                
1 43466U 98067NP  18259.53430948  .00011756  00000-0  16319-3 0  9997
2 43466  51.6388 281.4001 0001316  62.2413 297.8713 15.57501191 19924
UBAKUSAT                
1 43467U 98067NQ  18259.48745866  .00008545  00000-0  12295-3 0  9991
2 43467  51.6390 281.8406 0003135  97.5678 262.5670 15.56948862 19926
BATSU-CS1 (IRAZU)       
1 43468U 98067NR  18259.51492229  .00012976  00000-0  17633-3 0  9992
2 43468  51.6390 281.2710 0001385  51.9468 308.1649 15.57968053119913
CUBERRT                 
1 43546U 98067NU  18259.60160435  .00014572  00000-0  21537-3 0  9992
2 43546  51.6388 282.5923 0005527 170.7595 189.3499 15.55562443 10058
TEMPEST-D               
1 43547U 98067NV  18259.60861679  .00005540  00000-0  87559-4 0  9993
2 43547  51.6389 282.6393 0005861 172.6272 187.4806 15.55168014  9736
HALOSAT                 
1 43549U 98067NX  18259.54323227  .00008327  00000-0  12690-3 0  9999
2 43549  51.6389 282.9528 0005521 180.4668 179.6319 15.55404789  9734
ENDUROSAT ONE           
1 43551U 98067NZ  18259.46612553  .00009724  00000-0  14469-3 0  9994
2 43551  51.6387 283.1881 0005745 189.4755 170.6129 15.55836388 10134
EQUISAT                 
1 43552U 98067PA  18259.53218248  .00008823  00000-0  13253-3 0  9995
2 43552  51.6389 282.8802 0006035 190.4047 169.6821 15.55713613 10104
AEROCUBE 12A            
1 43556U 18046C   18259.55022988  .00000838  00000-0  43291-4 0  9998
2 43556  51.6430 295.5664 0008614 163.7317 196.3940 15.27808593  9489
AEROCUBE 12B            
1 43557U 18046D   18259.55038426  .00000499  00000-0  31021-4 0  9994
2 43557  51.6430 295.5674 0008613 163.6205 196.5055 15.27789423  9439
UITMSAT-1               
1 43589U 98067PD  18259.49688670  .00008807  00000-0  13458-3 0  9999
2 43589  51.6388 283.3918 0005271 200.0473 160.0311 15.55246493  5839
MAYA-1                  
1 43590U 98067PE  18259.49621220  .00008813  00000-0  13452-3 0  9990
2 43590  51.6389 283.3876 0005361 201.1935 158.8835 15.55275308  5765
BHUTAN-1                
1 43591U 98067PF  18259.49532910  .00008909  00000-0  13572-3 0  9997
2 43591  51.6388 283.3817 0005437 202.8515 157.2235 15.55313019  5765
SIRIUSSAT 1             
1 43595U 98067PG  18259.50638330  .00008258  00000-0  12830-3 0  9999
2 43595  51.6390 283.4512 0003581 142.7052 217.4188 15.54887711  4940
SIRIUSSAT 2             
1 43596U 98067PH  18259.57341746  .00007631  00000-0  11970-3 0  9997
2 43596  51.6398 283.1524 0004185 148.5151 211.6091 15.54747805  4953
